OBJECT_NAME,OBJECT_ID,EPOCH,MEAN_MOTION,ECCENTRICITY,INCLINATION,RA_OF_ASC_NODE,ARG_OF_PERICENTER,MEAN_ANOMALY,EPHEMERIS_TYPE,CLASSIFICATION_TYPE,NORAD_CAT_ID,ELEMENT_SET_NO,REV_AT_EPOCH,BSTAR,MEAN_MOTION_DOT,MEAN_MOTION_DDOT
SL-16 R/B,1994-077B,2026-07-15T02:29:06.066816,14.15574265,.00040839,70.9822,84.4324,303.4333,56.6399,0,U,23405,999,63426,-.16810377E-4,-.81E-6,0
ARIANE 40+ R/B,1995-021B,2026-07-15T04:46:06.687264,14.39847553,.00079015,98.4401,265.8674,116.4731,304.4114,0,U,23561,999,63759,.50720937E-4,.116E-5,0
SL-16 R/B,1995-058B,2026-07-15T12:58:33.421440,14.15508949,.00146168,71.0210,271.8302,282.3394,77.6093,0,U,23705,999,58594,.12261226E-3,.192E-5,0
SL-16 R/B,1996-051B,2026-07-15T12:01:04.478592,14.12456593,.00178206,70.7646,264.7305,297.6936,62.2375,0,U,24298,999,53969,.11182918E-3,.157E-5,0
ORBVIEW 2 (SEASTAR),1997-037A,2026-07-15T09:17:52.372608,14.35566788,.00030811,98.8713,4.1916,60.4990,299.6502,0,U,24883,999,52679,.45619877E-4,.85E-6,0
SL-16 R/B,1998-043G,2026-07-15T11:57:08.142624,14.26072712,.00100102,98.8379,150.9032,10.6806,349.4584,0,U,25400,999,45720,.1665231E-4,-.6E-7,0
SL-16 R/B,1998-045B,2026-07-15T11:43:57.503136,14.16205258,.0008168,71.0109,272.8110,206.2295,153.8416,0,U,25407,999,44519,-.68746021E-4,-.184E-5,0
ISS (ZARYA),1998-067A,2026-07-15T09:06:13.253184,15.49014944,.00067175,51.6310,160.5727,298.6245,61.4067,0,U,25544,999,57612,.77082068E-4,.3801E-4,0
CZ-4B R/B,1999-025C,2026-07-15T03:31:11.385984,14.18287708,.00366359,98.6472,237.2795,339.8742,87.7118,0,U,25732,999,40623,.28530562E-4,.16E-6,0
OKEAN-O,1999-039A,2026-07-15T14:22:12.981504,14.80497766,.0000884,97.9302,255.0683,87.7918,272.3395,0,U,25860,999,45331,.4293967E-4,.277E-5,0
SL-16 R/B,1999-039B,2026-07-15T02:54:59.287392,14.81870728,.00142964,97.9824,254.9028,198.6806,161.3884,0,U,25861,999,45573,.34469788E-4,.219E-5,0
DELTA 2 R/B,1999-041E,2026-07-15T06:36:48.499776,14.12085285,.05013878,51.7613,151.5757,4.9948,355.5728,0,U,25876,999,38105,.24210257E-3,.1267E-4,0
HELIOS 1B,1999-064A,2026-07-15T06:52:19.736256,14.88075271,.00019214,98.1585,102.2367,54.1371,306.0023,0,U,25977,999,70423,.77122232E-4,.65E-5,0
TERRA,1999-068A,2026-07-15T14:10:00.698304,14.61123920,.00034312,97.9442,245.0082,121.8524,22.4444,0,U,25994,999,41375,.46298036E-4,.183E-5,0
SL-16 R/B,2000-006B,2026-07-15T09:30:20.058336,14.15837986,.00171945,71.0002,189.3105,339.7349,20.3089,0,U,26070,999,36663,-.41833191E-4,-.13E-5,0
TITAN 4B R/B,2000-047B,2026-07-15T12:54:30.016224,15.10334279,.00458206,67.9873,40.7627,258.4128,101.1877,0,U,26474,999,41221,.83023956E-4,.1255E-4,0
ENVISAT,2002-009A,2026-07-15T11:41:49.996608,14.39070764,.00013299,98.3846,147.1769,83.2689,25.4049,0,U,27386,999,27755,.18776114E-4,.15E-6,0
IDEFIX & ARIANE 42P R/B,2002-021B,2026-07-15T10:42:07.088832,14.31093782,.00119037,98.5942,133.6235,165.7397,194.4124,0,U,27422,999,26229,.48349732E-4,.84E-6,0
AQUA,2002-022A,2026-07-14T12:07:11.762400,14.62196472,.0000927,98.4295,165.3370,111.8770,0.7592,0,U,27424,999,28726,.80863616E-4,.358E-5,0
CZ-4B R/B,2002-024C,2026-07-15T04:21:03.773952,14.14568259,.00504663,98.8686,248.8175,22.0276,47.3418,0,U,27432,999,24726,.26610519E-4,.7E-7,0
MIDORI II (ADEOS-II),2002-056A,2026-07-15T11:43:31.761120,14.29363094,.00014654,98.7895,155.9916,40.7601,319.3689,0,U,27597,999,22855,.52223667E-4,.88E-6,0
H-2A R/B,2002-056E,2026-07-15T11:50:50.985888,14.33833979,.00709026,98.3328,152.1387,140.0481,333.1790,0,U,27601,999,23242,.54167293E-4,.114E-5,0
CZ-4B R/B,2003-049C,2026-07-15T11:50:01.324896,14.55116196,.0047661,98.6910,196.4680,200.3297,159.6003,0,U,28059,999,20518,.40604309E-4,.126E-5,0
CZ-2C R/B,2004-012C,2026-07-15T04:21:40.999392,15.85201023,.00112442,97.7048,275.2324,190.4105,169.6933,0,U,28222,999,22432,.43339776E-3,.103407E-2,0
SL-16 R/B,2004-021B,2026-07-15T15:47:47.714496,14.14616486,.00062943,71.0029,323.9368,224.7461,135.3155,0,U,28353,999,14093,.4026084E-5,-.4E-6,0
CZ-4B R/B,2004-035C,2026-07-15T01:03:41.042592,15.30990563,.00292324,97.3355,228.8089,233.1907,126.6652,0,U,28415,999,19938,.13860665E-3,.4124E-4,0
CZ-2C R/B,2004-046B,2026-07-15T07:24:09.012096,14.27033171,.0140134,98.1916,103.3279,137.0583,224.1641,0,U,28480,999,12670,.38377785E-4,.64E-6,0
ARIANE 5 R/B,2004-049H,2026-07-15T11:43:24.064608,14.85479048,.0082638,98.2741,9.8391,297.3267,61.9552,0,U,28499,999,16476,.29716322E-4,.206E-5,0
CZ-2D R/B,2005-024B,2026-07-15T01:14:42.976320,15.72739019,.00024014,97.3469,216.9360,193.0107,167.1096,0,U,28738,999,15971,.33465455E-3,.45064E-3,0
ALOS (DAICHI),2006-002A,2026-07-15T11:21:40.866624,14.70102026,.00008449,98.1338,151.9559,101.0230,259.1071,0,U,28931,999,9225,.83259998E-4,.451E-5,0
