SL-16 R/B               
1 23405U 94077B   26196.10354244 -.00000081  00000+0 -16810-4 0  9998
2 23405  70.9822  84.4324 0004083 303.4333  56.6399 14.15574265634262
ARIANE 40+ R/B          
1 23561U 95021B   26196.19868851  .00000116  00000+0  50721-4 0  9990
2 23561  98.4401 265.8674 0007901 116.4731 304.4114 14.39847553637599
SL-16 R/B               
1 23705U 95058B   26196.54066460  .00000192  00000+0  12261-3 0  9995
2 23705  71.0210 271.8302 0014616 282.3394  77.6093 14.15508949585941
SL-16 R/B               
1 24298U 96051B   26196.50074628  .00000157  00000+0  11183-3 0  9991
2 24298  70.7646 264.7305 0017820 297.6936  62.2375 14.12456593539691
ORBVIEW 2 (SEASTAR)     
1 24883U 97037A   26196.38741172  .00000085  00000+0  45620-4 0  9991
2 24883  98.8713   4.1916 0003081  60.4990 299.6502 14.35566788526799
SL-16 R/B               
1 25400U 98043G   26196.49801091 -.00000006  00000+0  16652-4 0  9991
2 25400  98.8379 150.9032 0010010  10.6806 349.4584 14.26072712457207
SL-16 R/B               
1 25407U 98045B   26196.48885999 -.00000184  00000+0 -68746-4 0  9997
2 25407  71.0109 272.8110 0008168 206.2295 153.8416 14.16205258445193
ISS (ZARYA)             
1 25544U 98067A   26196.37932006  .00003801  00000+0  77082-4 0  9993
2 25544  51.6310 160.5727 0006717 298.6245  61.4067 15.49014944576129
CZ-4B R/B               
1 25732U 99025C   26196.14665956  .00000016  00000+0  28531-4 0  9999
2 25732  98.6472 237.2795 0036635 339.8742  87.7118 14.18287708406234
OKEAN-O                 
1 25860U 99039A   26196.59876136  .00000277  00000+0  42940-4 0  9998
2 25860  97.9302 255.0683 0000884  87.7918 272.3395 14.80497766453311
SL-16 R/B               
1 25861U 99039B   26196.12151953  .00000219  00000+0  34470-4 0  9996
2 25861  97.9824 254.9028 0014296 198.6806 161.3884 14.81870728455734
DELTA 2 R/B             
1 25876U 99041E   26196.27556134  .00001267  00000+0  24210-3 0  9995
2 25876  51.7613 151.5757 0501387   4.9948 355.5728 14.12085285381050
HELIOS 1B               
1 25977U 99064A   26196.28633954  .00000650  00000+0  77122-4 0  9995
2 25977  98.1585 102.2367 0001921  54.1371 306.0023 14.88075271704236
TERRA                   
1 25994U 99068A   26196.59028586  .00000183  00000+0  46298-4 0  9992
2 25994  97.9442 245.0082 0003431 121.8524  22.4444 14.61123920413750
SL-16 R/B               
1 26070U 00006B   26196.39606549 -.00000130  00000+0 -41833-4 0  9995
2 26070  71.0002 189.3105 0017194 339.7349  20.3089 14.15837986366632
TITAN 4B R/B            
1 26474U 00047B   26196.53784741  .00001255  00000+0  83024-4 0  9990
2 26474  67.9873  40.7627 0045820 258.4128 101.1877 15.10334279412210
ENVISAT                 
1 27386U 02009A   26196.48738422  .00000015  00000+0  18776-4 0  9997
2 27386  98.3846 147.1769 0001329  83.2689  25.4049 14.39070764277553
IDEFIX & ARIANE 42P R/B 
1 27422U 02021B   26196.44591538  .00000084  00000+0  48350-4 0  9990
2 27422  98.5942 133.6235 0011903 165.7397 194.4124 14.31093782262295
AQUA                    
1 27424U 02022A   26195.50499725  .00000358  00000+0  80864-4 0  9994
2 27424  98.4295 165.3370 0000927 111.8770   0.7592 14.62196472287266
CZ-4B R/B               
1 27432U 02024C   26196.18129368  .00000007  00000+0  26611-4 0  9994
2 27432  98.8686 248.8175 0050466  22.0276  47.3418 14.14568259247263
MIDORI II (ADEOS-II)    
1 27597U 02056A   26196.48856205  .00000088  00000+0  52224-4 0  9999
2 27597  98.7895 155.9916 0001465  40.7601 319.3689 14.29363094228550
H-2A R/B                
1 27601U 02056E   26196.49364567  .00000114  00000+0  54167-4 0  9999
2 27601  98.3328 152.1387 0070902 140.0481 333.1790 14.33833979232423
CZ-4B R/B               
1 28059U 03049C   26196.49307089  .00000126  00000+0  40604-4 0  9990
2 28059  98.6910 196.4680 0047661 200.3297 159.6003 14.55116196205189
CZ-2C R/B               
1 28222U 04012C   26196.18172453  .00103407  00000+0  43340-3 0  9999
2 28222  97.7048 275.2324 0011244 190.4105 169.6933 15.85201023224327
SL-16 R/B               
1 28353U 04021B   26196.65819114 -.00000040  00000+0  40261-5 0  9999
2 28353  71.0029 323.9368 0006294 224.7461 135.3155 14.14616486140934
CZ-4B R/B               
1 28415U 04035C   26196.04422503  .00004124  00000+0  13861-3 0  9998
2 28415  97.3355 228.8089 0029232 233.1907 126.6652 15.30990563199383
CZ-2C R/B               
1 28480U 04046B   26196.30843764  .00000064  00000+0  38378-4 0  9997
2 28480  98.1916 103.3279 0140134 137.0583 224.1641 14.27033171126708
ARIANE 5 R/B            
1 28499U 04049H   26196.48847297  .00000206  00000+0  29716-4 0  9998
2 28499  98.2741   9.8391 0082638 297.3267  61.9552 14.85479048164760
CZ-2D R/B               
1 28738U 05024B   26196.05188630  .00045064  00000+0  33465-3 0  9996
2 28738  97.3469 216.9360 0002401 193.0107 167.1096 15.72739019159710
ALOS (DAICHI)           
1 28931U 06002A   26196.47338966  .00000451  00000+0  83260-4 0  9993
2 28931  98.1338 151.9559 0000844 101.0230 259.1071 14.70102026 92251
